IRIDIUM 119             
1 42959U 17061E   24197.88331509  .00000455  00000+0  15530-3 0  9994
2 42959  86.3989 318.3204 0002317 100.8586 259.2870 14.34218946354294
IRIDIUM 107             
1 42960U 17061F   24197.83257806  .00000070  00000+0  17790-4 0  9992
2 42960  86.3989 318.3587 0002424  95.4816 264.6656 14.34217990354294
IRIDIUM 132             
1 42961U 17061G   24197.83892092  .00000056  00000+0  12811-4 0  9998
2 42961  86.3989 318.3405 0002502  92.1636 267.9846 14.34217885354295
IRIDIUM 136             
1 42962U 17061H   24197.87063082  .00000029  00000+0  31407-5 0  9995
2 42962  86.3989 318.3306 0002267 102.5122 257.6327 14.34216169354317
IRIDIUM 139             
1 42963U 17061J   24197.87697483  .00000095  00000+0  26841-4 0  9992
2 42963  86.3991 318.3786 0002569  94.5858 265.5631 14.34216374354329
IRIDIUM 125             
1 42964U 17061K   24197.86429068  .00000073  00000+0  19154-4 0  9999
2 42964  86.3993 318.4321 0002507 103.7259 256.4216 14.34218127354335
IRIDIUM 135             
1 43070U 17083A   24198.18725727  .00000298  00000+0  99322-4 0  9993
2 43070  86.3947 254.9450 0002090  87.1633 272.9802 14.34219238343671
IRIDIUM 138             
1 43071U 17083B   24198.21262134  .00000365  00000+0  12326-3 0  9999
2 43071  86.3937 254.6479 0002367 101.9422 258.2039 14.34221577343664
